{
    "links": {
        "self": "http://www.neowsapp.com/rest/v1/neo/3601526?api_key=iIulBulltgU6a56xZRHN4H3l9WmuAYTsLGpBGhQ2"
    },
    "id": "3601526",
    "neo_reference_id": "3601526",
    "name": "(2012 FD10)",
    "designation": "2012 FD10",
    "nasa_jpl_url": "http://ssd.jpl.nasa.gov/sbdb.cgi?sstr=3601526",
    "absolute_magnitude_h": 21.415,
    "estimated_diameter": {
        "kilometers": {
            "estimated_diameter_min": 0.1385335542,
            "estimated_diameter_max": 0.3097704444
        },
        "meters": {
            "estimated_diameter_min": 138.5335542117,
            "estimated_diameter_max": 309.7704443821
        },
        "miles": {
            "estimated_diameter_min": 0.0860807331,
            "estimated_diameter_max": 0.1924823708
        },
        "feet": {
            "estimated_diameter_min": 454.506426,
            "estimated_diameter_max": 1016.3072647465
        }
    },
    "is_potentially_hazardous_asteroid": false,
    "close_approach_data": [
        {
            "close_approach_date": "2012-03-18",
            "close_approach_date_full": "2012-Mar-18 09:10",
            "epoch_date_close_approach": 1332061800000,
            "relative_velocity": {
                "kilometers_per_second": "16.9337454992",
                "kilometers_per_hour": "60961.4837971182",
                "miles_per_hour": "37879.0953071594"
            },
            "miss_distance": {
                "astronomical": "0.3870187689",
                "lunar": "150.5503011021",
                "kilometers": "57897183.477462243",
                "miles": "35975641.6002272334"
            },
            "orbiting_body": "Earth"
        }
    ],
    "orbital_data": {
        "orbit_id": "10",
        "orbit_determination_date": "2019-12-18 11:41:22",
        "first_observation_date": "2012-03-19",
        "last_observation_date": "2012-03-20",
        "data_arc_in_days": 1,
        "observations_used": 28,
        "orbit_uncertainty": "9",
        "minimum_orbit_intersection": ".348036",
        "jupiter_tisserand_invariant": "4.147",
        "epoch_osculation": "2456006.5",
        "eccentricity": ".2191632394114107",
        "semi_major_axis": "1.60131474648489",
        "inclination": "33.99016277792209",
        "ascending_node_longitude": "352.4841509189681",
        "orbital_period": "740.1393280339388",
        "perihelion_distance": "1.250365419328",
        "perihelion_argument": "236.9337457878827",
        "aphelion_distance": "1.952264073641781",
        "perihelion_time": "2456083.180328798220",
        "mean_anomaly": "322.7030785667244",
        "mean_motion": ".4863949075051614",
        "equinox": "J2000",
        "orbit_class": {
            "orbit_class_type": "AMO",
            "orbit_class_description": "Near-Earth asteroid orbits similar to that of 1221 Amor",
            "orbit_class_range": "1.017 AU < q (perihelion) < 1.3 AU"
        }
    },
    "is_sentry_object": false
}